{
  "type": "FeatureCollection",
  "features": [
    {
      "type": "Feature",
      "properties": {
        "norad_id": 64751,
        "name": "PROGRESS-MS 31",
        "group": "stations",
        "lat": 19.718055313899285,
        "lon": 170.15434052900363,
        "alt_km": 418.25104291941443,
        "timestamp": "2025-12-10T11:33:52.187626+00:00",
        "meta_object_name": "PROGRESS-MS 31",
        "meta_object_id": "2025-146A",
        "meta_epoch": "2025-12-09T12:14:10.839552",
        "meta_mean_motion": 15.49447168,
        "meta_eccentricity": 0.00034,
        "meta_inclination": 51.631,
        "meta_ra_of_asc_node": 158.4724,
        "meta_arg_of_pericenter": 223.8185,
        "meta_mean_anomaly": 136.2534,
        "meta_ephemeris_type": 0,
        "meta_classification_type": "U",
        "meta_norad_cat_id": 64751,
        "meta_element_set_no": 999,
        "meta_rev_at_epoch": 675,
        "meta_bstar": 0.00026025969,
        "meta_mean_motion_dot": 0.00014141,
        "meta_mean_motion_ddot": 0,
        "tle_line1": "1 64751U 25146A   25343.50984768  .00014141  00000+0  26026-3 0  9994",
        "tle_line2": "2 64751  51.6310 158.4724 0003400 223.8185 136.2534 15.49447168  6759"
      },
      "geometry": {
        "type": "Point",
        "coordinates": [
          170.15434052900363,
          19.718055313899285
        ]
      }
    },
    {
      "type": "Feature",
      "properties": {
        "norad_id": 64786,
        "name": "TIANZHOU-9",
        "group": "stations",
        "lat": 31.207150488318668,
        "lon": 73.72558700492948,
        "alt_km": 380.68568377610336,
        "timestamp": "2025-12-10T11:33:52.187636+00:00",
        "meta_object_name": "TIANZHOU-9",
        "meta_object_id": "2025-149A",
        "meta_epoch": "2025-12-09T13:49:14.456064",
        "meta_mean_motion": 15.58965688,
        "meta_eccentricity": 0.00089597,
        "meta_inclination": 41.4682,
        "meta_ra_of_asc_node": 35.9133,
        "meta_arg_of_pericenter": 5.1145,
        "meta_mean_anomaly": 354.9784,
        "meta_ephemeris_type": 0,
        "meta_classification_type": "U",
        "meta_norad_cat_id": 64786,
        "meta_element_set_no": 999,
        "meta_rev_at_epoch": 25530,
        "meta_bstar": 0.00041052725,
        "meta_mean_motion_dot": 0.00032682,
        "meta_mean_motion_ddot": 0,
        "tle_line1": "1 64786U 25149A   25343.57586176  .00032682  00000+0  41053-3 0  9990",
        "tle_line2": "2 64786  41.4682  35.9133 0008959   5.1145 354.9784 15.58965688255305"
      },
      "geometry": {
        "type": "Point",
        "coordinates": [
          73.72558700492948,
          31.207150488318668
        ]
      }
    },
    {
      "type": "Feature",
      "properties": {
        "norad_id": 65077,
        "name": "CREW DRAGON 11",
        "group": "stations",
        "lat": 19.71805628516325,
        "lon": 170.15434143349276,
        "alt_km": 418.2510427846282,
        "timestamp": "2025-12-10T11:33:52.187646+00:00",
        "meta_object_name": "CREW DRAGON 11",
        "meta_object_id": "2025-166A",
        "meta_epoch": "2025-12-09T12:14:10.839552",
        "meta_mean_motion": 15.49447168,
        "meta_eccentricity": 0.00034,
        "meta_inclination": 51.631,
        "meta_ra_of_asc_node": 158.4724,
        "meta_arg_of_pericenter": 223.8185,
        "meta_mean_anomaly": 136.2534,
        "meta_ephemeris_type": 0,
        "meta_classification_type": "U",
        "meta_norad_cat_id": 65077,
        "meta_element_set_no": 999,
        "meta_rev_at_epoch": 214,
        "meta_bstar": 0.00026025969,
        "meta_mean_motion_dot": 0.00014141,
        "meta_mean_motion_ddot": 0,
        "tle_line1": "1 65077U 25166A   25343.50984768  .00014141  00000+0  26026-3 0  9998",
        "tle_line2": "2 65077  51.6310 158.4724 0003400 223.8185 136.2534 15.49447168  2140"
      },
      "geometry": {
        "type": "Point",
        "coordinates": [
          170.15434143349276,
          19.71805628516325
        ]
      }
    },
    {
      "type": "Feature",
      "properties": {
        "norad_id": 65304,
        "name": "DRAGON CRS-33",
        "group": "stations",
        "lat": 19.71805686792163,
        "lon": 170.15434197618626,
        "alt_km": 418.2510427037587,
        "timestamp": "2025-12-10T11:33:52.187658+00:00",
        "meta_object_name": "DRAGON CRS-33",
        "meta_object_id": "2025-186A",
        "meta_epoch": "2025-12-09T12:14:10.839552",
        "meta_mean_motion": 15.49447168,
        "meta_eccentricity": 0.00034,
        "meta_inclination": 51.631,
        "meta_ra_of_asc_node": 158.4724,
        "meta_arg_of_pericenter": 223.8185,
        "meta_mean_anomaly": 136.2534,
        "meta_ephemeris_type": 0,
        "meta_classification_type": "U",
        "meta_norad_cat_id": 65304,
        "meta_element_set_no": 999,
        "meta_rev_at_epoch": 11,
        "meta_bstar": 0.00026025969,
        "meta_mean_motion_dot": 0.00014141,
        "meta_mean_motion_ddot": 0,
        "tle_line1": "1 65304U 25186A   25343.50984768  .00014141  00000+0  26026-3 0  9993",
        "tle_line2": "2 65304  51.6310 158.4724 0003400 223.8185 136.2534 15.49447168   118"
      },
      "geometry": {
        "type": "Point",
        "coordinates": [
          170.15434197618626,
          19.71805686792163
        ]
      }
    },
    {
      "type": "Feature",
      "properties": {
        "norad_id": 65586,
        "name": "PROGRESS-MS 32",
        "group": "stations",
        "lat": 19.71805735355392,
        "lon": 170.1543424284311,
        "alt_km": 418.2510426363633,
        "timestamp": "2025-12-10T11:33:52.187668+00:00",
        "meta_object_name": "PROGRESS-MS 32",
        "meta_object_id": "2025-204A",
        "meta_epoch": "2025-12-09T12:14:10.839552",
        "meta_mean_motion": 15.49447168,
        "meta_eccentricity": 0.00034,
        "meta_inclination": 51.631,
        "meta_ra_of_asc_node": 158.4724,
        "meta_arg_of_pericenter": 223.8185,
        "meta_mean_anomaly": 136.2534,
        "meta_ephemeris_type": 0,
        "meta_classification_type": "U",
        "meta_norad_cat_id": 65586,
        "meta_element_set_no": 999,
        "meta_rev_at_epoch": 27,
        "meta_bstar": 0.00026025969,
        "meta_mean_motion_dot": 0.00014141,
        "meta_mean_motion_ddot": 0,
        "tle_line1": "1 65586U 25204A   25343.50984768  .00014141  00000+0  26026-3 0  9996",
        "tle_line2": "2 65586  51.6310 158.4724 0003400 223.8185 136.2534 15.49447168   277"
      },
      "geometry": {
        "type": "Point",
        "coordinates": [
          170.1543424284311,
          19.71805735355392
        ]
      }
    },
    {
      "type": "Feature",
      "properties": {
        "norad_id": 65616,
        "name": "CYGNUS NG-23",
        "group": "stations",
        "lat": 19.7180579363129,
        "lon": 170.1543429711252,
        "alt_km": 418.25104255549377,
        "timestamp": "2025-12-10T11:33:52.187680+00:00",
        "meta_object_name": "CYGNUS NG-23",
        "meta_object_id": "2025-208A",
        "meta_epoch": "2025-12-09T12:14:10.839552",
        "meta_mean_motion": 15.49447168,
        "meta_eccentricity": 0.00034,
        "meta_inclination": 51.631,
        "meta_ra_of_asc_node": 158.4724,
        "meta_arg_of_pericenter": 223.8185,
        "meta_mean_anomaly": 136.2534,
        "meta_ephemeris_type": 0,
        "meta_classification_type": "U",
        "meta_norad_cat_id": 65616,
        "meta_element_set_no": 999,
        "meta_rev_at_epoch": 22,
        "meta_bstar": 0.00026025969,
        "meta_mean_motion_dot": 0.00014141,
        "meta_mean_motion_ddot": 0,
        "tle_line1": "1 65616U 25208A   25343.50984768  .00014141  00000+0  26026-3 0  9994",
        "tle_line2": "2 65616  51.6310 158.4724 0003400 223.8185 136.2534 15.49447168   226"
      },
      "geometry": {
        "type": "Point",
        "coordinates": [
          170.1543429711252,
          19.7180579363129
        ]
      }
    },
    {
      "type": "Feature",
      "properties": {
        "norad_id": 65729,
        "name": "DRAGONFLY",
        "group": "stations",
        "lat": -4.215506654621561,
        "lon": -29.335639665756467,
        "alt_km": 356.5197457253407,
        "timestamp": "2025-12-10T11:33:52.187692+00:00",
        "meta_object_name": "DRAGONFLY",
        "meta_object_id": "1998-067XH",
        "meta_epoch": "2025-12-09T11:52:26.095872",
        "meta_mean_motion": 15.70499103,
        "meta_eccentricity": 0.00065374,
        "meta_inclination": 51.6245,
        "meta_ra_of_asc_node": 152.3636,
        "meta_arg_of_pericenter": 255.9884,
        "meta_mean_anomaly": 104.0387,
        "meta_ephemeris_type": 0,
        "meta_classification_type": "U",
        "meta_norad_cat_id": 65729,
        "meta_element_set_no": 999,
        "meta_rev_at_epoch": 1265,
        "meta_bstar": 0.0014915016,
        "meta_mean_motion_dot": 0.00190953,
        "meta_mean_motion_ddot": 0,
        "tle_line1": "1 65729U 98067XH  25343.49474648  .00190953  00000+0  14915-2 0  9990",
        "tle_line2": "2 65729  51.6245 152.3636 0006537 255.9884 104.0387 15.70499103 12658"
      },
      "geometry": {
        "type": "Point",
        "coordinates": [
          -29.335639665756467,
          -4.215506654621561
        ]
      }
    }
  ]
}